CCSDS_OMM_VERS = 2.0
CREATION_DATE  = 
ORIGINATOR     = 

OBJECT_NAME    = STARLINK-36822
OBJECT_ID      = 2026-036F
CENTER_NAME    = EARTH
REF_FRAME      = TEME
TIME_SYSTEM    = UTC
MEAN_ELEMENT_THEORY = SGP/SGP4

EPOCH          = 2026-03-12T22:00:01.999584
MEAN_MOTION    = 15.72189773
ECCENTRICITY   = .00015353
INCLINATION    = 42.9991
RA_OF_ASC_NODE = 230.0849
ARG_OF_PERICENTER = 278.6478
MEAN_ANOMALY   = 336.0620

EPHEMERIS_TYPE = 0
CLASSIFICATION_TYPE = U
NORAD_CAT_ID   = 67909
ELEMENT_SET_NO = 999
REV_AT_EPOCH   = 416
BSTAR          = -.15712909E-1
MEAN_MOTION_DOT = -.1859813E-1
MEAN_MOTION_DDOT = 0

CCSDS_OMM_VERS = 2.0
CREATION_DATE  = 
ORIGINATOR     = 

OBJECT_NAME    = STARLINK-36847
OBJECT_ID      = 2026-036G
CENTER_NAME    = EARTH
REF_FRAME      = TEME
TIME_SYSTEM    = UTC
MEAN_ELEMENT_THEORY = SGP/SGP4

EPOCH          = 2026-03-12T22:00:01.999584
MEAN_MOTION    = 15.71329484
ECCENTRICITY   = .00015186
INCLINATION    = 42.9991
RA_OF_ASC_NODE = 230.0927
ARG_OF_PERICENTER = 278.4513
MEAN_ANOMALY   = 332.9388

EPHEMERIS_TYPE = 0
CLASSIFICATION_TYPE = U
NORAD_CAT_ID   = 67910
ELEMENT_SET_NO = 999
REV_AT_EPOCH   = 416
BSTAR          = -.16301307E-1
MEAN_MOTION_DOT = -.1859554E-1
MEAN_MOTION_DDOT = 0

CCSDS_OMM_VERS = 2.0
CREATION_DATE  = 
ORIGINATOR     = 

OBJECT_NAME    = STARLINK-36736
OBJECT_ID      = 2026-036H
CENTER_NAME    = EARTH
REF_FRAME      = TEME
TIME_SYSTEM    = UTC
MEAN_ELEMENT_THEORY = SGP/SGP4

EPOCH          = 2026-03-12T22:00:01.999584
MEAN_MOTION    = 15.79620879
ECCENTRICITY   = .00016642
INCLINATION    = 42.9995
RA_OF_ASC_NODE = 229.9662
ARG_OF_PERICENTER = 278.4858
MEAN_ANOMALY   = 23.7612

EPHEMERIS_TYPE = 0
CLASSIFICATION_TYPE = U
NORAD_CAT_ID   = 67911
ELEMENT_SET_NO = 999
REV_AT_EPOCH   = 416
BSTAR          = -.1134264E-1
MEAN_MOTION_DOT = -.1869131E-1
MEAN_MOTION_DDOT = 0

CCSDS_OMM_VERS = 2.0
CREATION_DATE  = 
ORIGINATOR     = 

OBJECT_NAME    = STARLINK-36676
OBJECT_ID      = 2026-036J
CENTER_NAME    = EARTH
REF_FRAME      = TEME
TIME_SYSTEM    = UTC
MEAN_ELEMENT_THEORY = SGP/SGP4

EPOCH          = 2026-03-12T19:12:51.355296
MEAN_MOTION    = 15.78468225
ECCENTRICITY   = .00017254
INCLINATION    = 42.9986
RA_OF_ASC_NODE = 230.6763
ARG_OF_PERICENTER = 304.9770
MEAN_ANOMALY   = 55.0938

EPHEMERIS_TYPE = 0
CLASSIFICATION_TYPE = U
NORAD_CAT_ID   = 67912
ELEMENT_SET_NO = 999
REV_AT_EPOCH   = 416
BSTAR          = -.45552924E-2
MEAN_MOTION_DOT = -.747719E-2
MEAN_MOTION_DDOT = 0

CCSDS_OMM_VERS = 2.0
CREATION_DATE  = 
ORIGINATOR     = 

OBJECT_NAME    = STARLINK-36690
OBJECT_ID      = 2026-036K
CENTER_NAME    = EARTH
REF_FRAME      = TEME
TIME_SYSTEM    = UTC
MEAN_ELEMENT_THEORY = SGP/SGP4

EPOCH          = 2026-03-12T19:09:29.154240
MEAN_MOTION    = 15.82949638
ECCENTRICITY   = .00181998
INCLINATION    = 43.0008
RA_OF_ASC_NODE = 230.6626
ARG_OF_PERICENTER = 279.9239
MEAN_ANOMALY   = 79.9578

EPHEMERIS_TYPE = 0
CLASSIFICATION_TYPE = U
NORAD_CAT_ID   = 67913
ELEMENT_SET_NO = 999
REV_AT_EPOCH   = 416
BSTAR          = .19756609E-2
MEAN_MOTION_DOT = .462609E-2
MEAN_MOTION_DDOT = 0

CCSDS_OMM_VERS = 2.0
CREATION_DATE  = 
ORIGINATOR     = 

OBJECT_NAME    = STARLINK-36724
OBJECT_ID      = 2026-036L
CENTER_NAME    = EARTH
REF_FRAME      = TEME
TIME_SYSTEM    = UTC
MEAN_ELEMENT_THEORY = SGP/SGP4

EPOCH          = 2026-03-12T20:40:22.798272
MEAN_MOTION    = 15.78794950
ECCENTRICITY   = .00029262
INCLINATION    = 42.9982
RA_OF_ASC_NODE = 230.2691
ARG_OF_PERICENTER = 303.9718
MEAN_ANOMALY   = 56.0874

EPHEMERIS_TYPE = 0
CLASSIFICATION_TYPE = U
NORAD_CAT_ID   = 67914
ELEMENT_SET_NO = 999
REV_AT_EPOCH   = 417
BSTAR          = -.27301478E-2
MEAN_MOTION_DOT = -.4701E-2
MEAN_MOTION_DDOT = 0

CCSDS_OMM_VERS = 2.0
CREATION_DATE  = 
ORIGINATOR     = 

OBJECT_NAME    = STARLINK-36723
OBJECT_ID      = 2026-036M
CENTER_NAME    = EARTH
REF_FRAME      = TEME
TIME_SYSTEM    = UTC
MEAN_ELEMENT_THEORY = SGP/SGP4

EPOCH          = 2026-03-12T22:00:01.999584
MEAN_MOTION    = 15.79277232
ECCENTRICITY   = .00015515
INCLINATION    = 42.9992
RA_OF_ASC_NODE = 229.9360
ARG_OF_PERICENTER = 275.3225
MEAN_ANOMALY   = 38.9972

EPHEMERIS_TYPE = 0
CLASSIFICATION_TYPE = U
NORAD_CAT_ID   = 67915
ELEMENT_SET_NO = 999
REV_AT_EPOCH   = 416
BSTAR          = -.11503894E-1
MEAN_MOTION_DOT = -.186618E-1
MEAN_MOTION_DDOT = 0

CCSDS_OMM_VERS = 2.0
CREATION_DATE  = 
ORIGINATOR     = 

OBJECT_NAME    = STARLINK-36721
OBJECT_ID      = 2026-036N
CENTER_NAME    = EARTH
REF_FRAME      = TEME
TIME_SYSTEM    = UTC
MEAN_ELEMENT_THEORY = SGP/SGP4

EPOCH          = 2026-03-12T20:38:20.623488
MEAN_MOTION    = 15.80036897
ECCENTRICITY   = .0002814
INCLINATION    = 42.9982
RA_OF_ASC_NODE = 230.2595
ARG_OF_PERICENTER = 242.9338
MEAN_ANOMALY   = 117.1246

EPHEMERIS_TYPE = 0
CLASSIFICATION_TYPE = U
NORAD_CAT_ID   = 67916
ELEMENT_SET_NO = 999
REV_AT_EPOCH   = 417
BSTAR          = -.47456606E-2
MEAN_MOTION_DOT = -.829466E-2
MEAN_MOTION_DDOT = 0

CCSDS_OMM_VERS = 2.0
CREATION_DATE  = 
ORIGINATOR     = 

OBJECT_NAME    = STARLINK-36722
OBJECT_ID      = 2026-036P
CENTER_NAME    = EARTH
REF_FRAME      = TEME
TIME_SYSTEM    = UTC
MEAN_ELEMENT_THEORY = SGP/SGP4

EPOCH          = 2026-03-12T20:36:37.759968
MEAN_MOTION    = 15.82084735
ECCENTRICITY   = .00018168
INCLINATION    = 42.9987
RA_OF_ASC_NODE = 230.2473
ARG_OF_PERICENTER = 289.8999
MEAN_ANOMALY   = 70.1677

EPHEMERIS_TYPE = 0
CLASSIFICATION_TYPE = U
NORAD_CAT_ID   = 67917
ELEMENT_SET_NO = 999
REV_AT_EPOCH   = 417
BSTAR          = .71413887E-3
MEAN_MOTION_DOT = .153018E-2
MEAN_MOTION_DDOT = 0

CCSDS_OMM_VERS = 2.0
CREATION_DATE  = 
ORIGINATOR     = 

OBJECT_NAME    = STARLINK-36341
OBJECT_ID      = 2026-036Q
CENTER_NAME    = EARTH
REF_FRAME      = TEME
TIME_SYSTEM    = UTC
MEAN_ELEMENT_THEORY = SGP/SGP4

EPOCH          = 2026-03-12T22:00:01.999584
MEAN_MOTION    = 15.64818530
ECCENTRICITY   = .00014382
INCLINATION    = 42.9996
RA_OF_ASC_NODE = 230.1898
ARG_OF_PERICENTER = 277.1275
MEAN_ANOMALY   = 294.6916

EPHEMERIS_TYPE = 0
CLASSIFICATION_TYPE = U
NORAD_CAT_ID   = 67918
ELEMENT_SET_NO = 999
REV_AT_EPOCH   = 416
BSTAR          = -.21227828E-1
MEAN_MOTION_DOT = -.1887124E-1
MEAN_MOTION_DDOT = 0

CCSDS_OMM_VERS = 2.0
CREATION_DATE  = 
ORIGINATOR     = 

OBJECT_NAME    = STARLINK-36663
OBJECT_ID      = 2026-036R
CENTER_NAME    = EARTH
REF_FRAME      = TEME
TIME_SYSTEM    = UTC
MEAN_ELEMENT_THEORY = SGP/SGP4

EPOCH          = 2026-03-12T19:05:03.264288
MEAN_MOTION    = 15.80899755
ECCENTRICITY   = .00051846
INCLINATION    = 42.9984
RA_OF_ASC_NODE = 230.6314
ARG_OF_PERICENTER = 343.1884
MEAN_ANOMALY   = 16.8815

EPHEMERIS_TYPE = 0
CLASSIFICATION_TYPE = U
NORAD_CAT_ID   = 67919
ELEMENT_SET_NO = 999
REV_AT_EPOCH   = 416
BSTAR          = .23900892E-2
MEAN_MOTION_DOT = .506569E-2
MEAN_MOTION_DDOT = 0

CCSDS_OMM_VERS = 2.0
CREATION_DATE  = 
ORIGINATOR     = 

OBJECT_NAME    = STARLINK-36375
OBJECT_ID      = 2026-036S
CENTER_NAME    = EARTH
REF_FRAME      = TEME
TIME_SYSTEM    = UTC
MEAN_ELEMENT_THEORY = SGP/SGP4

EPOCH          = 2026-03-12T22:00:01.999584
MEAN_MOTION    = 15.73748123
ECCENTRICITY   = .00016441
INCLINATION    = 42.9991
RA_OF_ASC_NODE = 229.9362
ARG_OF_PERICENTER = 276.7093
MEAN_ANOMALY   = 37.1563

EPHEMERIS_TYPE = 0
CLASSIFICATION_TYPE = U
NORAD_CAT_ID   = 67920
ELEMENT_SET_NO = 999
REV_AT_EPOCH   = 416
BSTAR          = -.14649614E-1
MEAN_MOTION_DOT = -.1855947E-1
MEAN_MOTION_DDOT = 0

