STARLINK-36822          
1 67909U 26036F   26071.91668981 -.01859813  00000+0 -15713-1 0  9996
2 67909  42.9991 230.0849 0001535 278.6478 336.0620 15.72189773  4160
STARLINK-36847          
1 67910U 26036G   26071.91668981 -.01859554  00000+0 -16301-1 0  9994
2 67910  42.9991 230.0927 0001518 278.4513 332.9388 15.71329484  4168
STARLINK-36736          
1 67911U 26036H   26071.91668981 -.01869131  00000+0 -11343-1 0  9998
2 67911  42.9995 229.9662 0001664 278.4858  23.7612 15.79620879  4165
STARLINK-36676          
1 67912U 26036J   26071.80059439 -.00747719  00000+0 -45553-2 0  9996
2 67912  42.9986 230.6763 0001725 304.9770  55.0938 15.78468225  4166
STARLINK-36690          
1 67913U 26036K   26071.79825410  .00462609  00000+0  19757-2 0  9992
2 67913  43.0008 230.6626 0018199 279.9239  79.9578 15.82949638  4168
STARLINK-36724          
1 67914U 26036L   26071.86137498 -.00470100  00000+0 -27301-2 0  9994
2 67914  42.9982 230.2691 0002926 303.9718  56.0874 15.78794950  4173
STARLINK-36723          
1 67915U 26036M   26071.91668981 -.01866180  00000+0 -11504-1 0  9992
2 67915  42.9992 229.9360 0001551 275.3225  38.9972 15.79277232  4168
STARLINK-36721          
1 67916U 26036N   26071.85996092 -.00829466  00000+0 -47457-2 0  9995
2 67916  42.9982 230.2595 0002814 242.9338 117.1246 15.80036897  4178
STARLINK-36722          
1 67917U 26036P   26071.85877037  .00153018  00000+0  71414-3 0  9995
2 67917  42.9987 230.2473 0001816 289.8999  70.1677 15.82084735  4175
STARLINK-36341          
1 67918U 26036Q   26071.91668981 -.01887124  00000+0 -21228-1 0  9990
2 67918  42.9996 230.1898 0001438 277.1275 294.6916 15.64818530  4169
STARLINK-36663          
1 67919U 26036R   26071.79517667  .00506569  00000+0  23901-2 0  9990
2 67919  42.9984 230.6314 0005184 343.1884  16.8815 15.80899755  4165
STARLINK-36375          
1 67920U 26036S   26071.91668981 -.01855947  00000+0 -14650-1 0  9992
2 67920  42.9991 229.9362 0001644 276.7093  37.1563 15.73748123  4169
